$$SOE
2460147.500000000, A.D. 2023-Jul-22 00:00:00.0000, -1.545293354961726E+08, -2.520101642660370E+08, 1.780015067823358E+07,
2460154.500000000, A.D. 2023-Jul-29 00:00:00.0000, -1.419323590886045E+08, -2.572073339914557E+08, 1.833683605997296E+07,
2460161.500000000, A.D. 2023-Aug-05 00:00:00.0000, -1.290653565942540E+08, -2.619149293448624E+08, 1.883861823906131E+07,
2460168.500000000, A.D. 2023-Aug-12 00:00:00.0000, -1.159484008138779E+08, -2.661150248718112E+08, 1.930389737588353E+07,
2460175.500000000, A.D. 2023-Aug-19 00:00:00.0000, -1.026030043690082E+08, -2.697905265641710E+08, 1.973112229315129E+07,
2460182.500000000, A.D. 2023-Aug-26 00:00:00.0000, -8.905209630810779E+07, -2.729253093851677E+08, 2.011880136027938E+07,
2460189.500000000, A.D. 2023-Sep-02 00:00:00.0000, -7.531998382519104E+07, -2.755043574414790E+08, 2.046551373167062E+07,
2460196.500000000, A.D. 2023-Sep-09 00:00:00.0000, -6.143229811633647E+07, -2.775139050617403E+08, 2.076992080501096E+07,
2460203.500000000, A.D. 2023-Sep-16 00:00:00.0000, -4.741592349776709E+07, -2.789415768311884E+08, 2.103077773262747E+07,
2460210.500000000, A.D. 2023-Sep-23 00:00:00.0000, -3.329890893963698E+07, -2.797765240915575E+08, 2.124694480595535E+07,
2460217.500000000, A.D. 2023-Sep-30 00:00:00.0000, -1.911036225206629E+07, -2.800095543579269E+08, 2.141739866078877E+07,
2460224.500000000, A.D. 2023-Oct-07 00:00:00.0000, -4.880329541418301E+06, -2.796332517352930E+08, 2.154124328181180E+07,
2460231.500000000, A.D. 2023-Oct-14 00:00:00.0000, 9.360340441695997E+06, -2.786420891516629E+08, 2.161772023966604E+07,
2460238.500000000, A.D. 2023-Oct-21 00:00:00.0000, 2.358014921129688E+07, -2.770325283515502E+08, 2.164621779418179E+07,
2460245.500000000, A.D. 2023-Oct-28 00:00:00.0000, 3.774711578164241E+07, -2.748031030544008E+08, 2.162627898328137E+07,
2460252.500000000, A.D. 2023-Nov-04 00:00:00.0000, 5.182895506207336E+07, -2.719544839084384E+08, 2.155760856409535E+07,
2460259.500000000, A.D. 2023-Nov-11 00:00:00.0000, 6.579326529043340E+07, -2.684895239786319E+08, 2.144007857318826E+07,
2460266.500000000, A.D. 2023-Nov-18 00:00:00.0000, 7.960772209209403E+07, -2.644132833277631E+08, 2.127373233655208E+07,
2460273.500000000, A.D. 2023-Nov-25 00:00:00.0000, 9.324027633478606E+07, -2.597330315828511E+08, 2.105878680940394E+07,
2460280.500000000, A.D. 2023-Dec-02 00:00:00.0000, 1.066593527172938E+08, -2.544582278845992E+08, 2.079563316042997E+07,
2460287.500000000, A.D. 2023-Dec-09 00:00:00.0000, 1.198340459869625E+08, -2.486004781780916E+08, 2.048483554571733E+07,
2460294.500000000, A.D. 2023-Dec-16 00:00:00.0000, 1.327343118921710E+08, -2.421734702661086E+08, 2.012712804752526E+07,
2460301.500000000, A.D. 2023-Dec-23 00:00:00.0000, 1.453311501328889E+08, -2.351928868964179E+08, 1.972340984463646E+07,
2460308.500000000, A.D. 2023-Dec-30 00:00:00.0000, 1.575967750779726E+08, -2.276762972837184E+08, 1.927473890411582E+07,
2460315.500000000, A.D. 2024-Jan-06 00:00:00.0000, 1.695047698716410E+08, -2.196430313179073E+08, 1.878232428096591E+07,
2460322.500000000, A.D. 2024-Jan-13 00:00:00.0000, 1.810302248638670E+08, -2.111140405364710E+08, 1.824751673696567E+07,
2460329.500000000, A.D. 2024-Jan-20 00:00:00.0000, 1.921498597796027E+08, -2.021117453573679E+08, 1.767179799824893E+07,
2460336.500000000, A.D. 2024-Jan-27 00:00:00.0000, 2.028421262558755E+08, -1.926598707209443E+08, 1.705676909319780E+07,
2460343.500000000, A.D. 2024-Feb-03 00:00:00.0000, 2.130872894630923E+08, -1.827832740111866E+08, 1.640413794889744E+07,
2460350.500000000, A.D. 2024-Feb-10 00:00:00.0000, 2.228674887229302E+08, -1.725077684966042E+08, 1.571570642066372E+07,
2460357.500000000, A.D. 2024-Feb-17 00:00:00.0000, 2.321667773702436E+08, -1.618599451718305E+08, 1.499335696689333E+07,
2460364.500000000, A.D. 2024-Feb-24 00:00:00.0000, 2.409711424429106E+08, -1.508669957345017E+08, 1.423903918554461E+07,
2460371.500000000, A.D. 2024-Mar-02 00:00:00.0000, 2.492685051659642E+08, -1.395565392708777E+08, 1.345475641301980E+07,
2460378.500000000, A.D. 2024-Mar-09 00:00:00.0000, 2.570487036339739E+08, -1.279564549867761E+08, 1.264255255568828E+07,
2460385.500000000, A.D. 2024-Mar-16 00:00:00.0000, 2.643034596222042E+08, -1.160947227495366E+08, 1.180449930181807E+07,
2460392.500000000, A.D. 2024-Mar-23 00:00:00.0000, 2.710263311709057E+08, -1.039992719707970E+08, 1.094268396210735E+07,
2460399.500000000, A.D. 2024-Mar-30 00:00:00.0000, 2.772126505817596E+08, -9.169784017077781E+07, 1.005919826561479E+07,
2460406.500000000, A.D. 2024-Apr-06 00:00:00.0000, 2.828594500110000E+08, -7.921784556765522E+07, 9.156127905872051E+06,
2460413.500000000, A.D. 2024-Apr-13 00:00:00.0000, 2.879653801350051E+08, -6.658627349549834E+07, 8.235542645763293E+06,
2460420.500000000, A.D. 2024-Apr-20 00:00:00.0000, 2.925306228208736E+08, -5.382957430395352E+07, 7.299487330088535E+06,
2460427.500000000, A.D. 2024-Apr-27 00:00:00.0000, 2.965567980955646E+08, -4.097357335129158E+07, 6.349973922183493E+06,
2460434.500000000, A.D. 2024-May-04 00:00:00.0000, 3.000468672119560E+08, -2.804339360540318E+07, 5.388974506039565E+06,
2460441.500000000, A.D. 2024-May-11 00:00:00.0000, 3.030050336310017E+08, -1.506339057486385E+07, 4.418415215852577E+06,
2460448.500000000, A.D. 2024-May-18 00:00:00.0000, 3.054366434210441E+08, -2.057099015752935E+06, 3.440171063896271E+06,
2460455.500000000, A.D. 2024-May-25 00:00:00.0000, 3.073480863384309E+08, 1.095280923763483E+07, 2.456061626287870E+06,
2460462.500000000, A.D. 2024-Jun-01 00:00:00.0000, 3.087466987094563E+08, 2.394455701862917E+07, 1.467847528090561E+06,
2460469.500000000, A.D. 2024-Jun-08 00:00:00.0000, 3.096406692475855E+08, 3.689728395200971E+07, 4.772276474492922E+05,
2460476.500000000, A.D. 2024-Jun-15 00:00:00.0000, 3.100389489241873E+08, 4.979106036393365E+07, -5.141630139397047E+05,
2460483.500000000, A.D. 2024-Jun-22 00:00:00.0000, 3.099511644554192E+08, 6.260689503845076E+07, -1.504754667151630E+06,
2460490.500000000, A.D. 2024-Jun-29 00:00:00.0000, 3.093875337309191E+08, 7.532673587745112E+07, -2.493043294202983E+06,
2460497.500000000, A.D. 2024-Jul-06 00:00:00.0000, 3.083587861473475E+08, 8.793346183427781E+07, -3.477590935130920E+06,
2460504.500000000, A.D. 2024-Jul-13 00:00:00.0000, 3.068760899876077E+08, 1.004108697531328E+08, -4.457025713221975E+06,
2460511.500000000, A.D. 2024-Jul-20 00:00:00.0000, 3.049509849584299E+08, 1.127436580311204E+08, -5.430041379993320E+06,
2460518.500000000, A.D. 2024-Jul-27 00:00:00.0000, 3.025953192508242E+08, 1.249174068588276E+08, -6.395396452587157E+06,
2460525.500000000, A.D. 2024-Aug-03 00:00:00.0000, 2.998211913477842E+08, 1.369185553226441E+08, -7.351913050356932E+06,
2460532.500000000, A.D. 2024-Aug-10 00:00:00.0000, 2.966408966393007E+08, 1.487343759641129E+08, -8.298475493613832E+06,
2460539.500000000, A.D. 2024-Aug-17 00:00:00.0000, 2.930668787409117E+08, 1.603529473592367E+08, -9.234028710577704E+06,
2460546.500000000, A.D. 2024-Aug-24 00:00:00.0000, 2.891116853575747E+08, 1.717631251792591E+08, -1.015757649640174E+07,
2460553.500000000, A.D. 2024-Aug-31 00:00:00.0000, 2.847879285971157E+08, 1.829545121000457E+08, -1.106817967548075E+07,
2460560.500000000, A.D. 2024-Sep-07 00:00:00.0000, 2.801082498707505E+08, 1.939174270615437E+08, -1.196495422224859E+07,
2460567.500000000, A.D. 2024-Sep-14 00:00:00.0000, 2.750852892240233E+08, 2.046428751942418E+08, -1.284706929544730E+07,
2460574.500000000, A.D. 2024-Sep-21 00:00:00.0000, 2.697316568133134E+08, 2.151225191017192E+08, -1.371374498996409E+07,
2460581.500000000, A.D. 2024-Sep-28 00:00:00.0000, 2.640599057918753E+08, 2.253486485175330E+08, -1.456425004570472E+07,
2460588.500000000, A.D. 2024-Oct-05 00:00:00.0000, 2.580825100384202E+08, 2.353141485394149E+08, -1.539789986921242E+07,
2460595.500000000, A.D. 2024-Oct-12 00:00:00.0000, 2.518118461259950E+08, 2.450124695806734E+08, -1.621405460738930E+07,
2460602.500000000, A.D. 2024-Oct-19 00:00:00.0000, 2.452601775447437E+08, 2.544375989014148E+08, -1.701211714757335E+07,
2460609.500000000, A.D. 2024-Oct-26 00:00:00.0000, 2.384396409237300E+08, 2.635840330257092E+08, -1.779153111713868E+07,
2460616.500000000, A.D. 2024-Nov-02 00:00:00.0000, 2.313622342981456E+08, 2.724467509786175E+08, -1.855177892702891E+07,
2460623.500000000, A.D. 2024-Nov-09 00:00:00.0000, 2.240398073181289E+08, 2.810211884240422E+08, -1.929237987310474E+07,
2460630.500000000, A.D. 2024-Nov-16 00:00:00.0000, 2.164840532352216E+08, 2.893032127456315E+08, -2.001288830257051E+07,
2460637.500000000, A.D. 2024-Nov-23 00:00:00.0000, 2.087065025343148E+08, 2.972890990485845E+08, -2.071289185730080E+07,
2460644.500000000, A.D. 2024-Nov-30 00:00:00.0000, 2.007185182523541E+08, 3.049755070573373E+08, -2.139200981914398E+07,
2460651.500000000, A.D. 2024-Dec-07 00:00:00.0000, 1.925312932508648E+08, 3.123594593397695E+08, -2.204989156350803E+07,
2460658.500000000, A.D. 2024-Dec-14 00:00:00.0000, 1.841558486164784E+08, 3.194383220809056E+08, -2.268621496004336E+07,
2460665.500000000, A.D. 2024-Dec-21 00:00:00.0000, 1.756030307412838E+08, 3.262097871523007E+08, -2.330068460944483E+07,
2460672.500000000, A.D. 2024-Dec-28 00:00:00.0000, 1.668835089379267E+08, 3.326718524987824E+08, -2.389303033969378E+07,
2460679.500000000, A.D. 2025-Jan-04 00:00:00.0000, 1.580077760889108E+08, 3.388228032006568E+08, -2.446300600672884E+07,
2460686.500000000, A.D. 2025-Jan-11 00:00:00.0000, 1.489861504154174E+08, 3.446611948368964E+08, -2.501038829585399E+07,
2460693.500000000, A.D. 2025-Jan-18 00:00:00.0000, 1.398287773571878E+08, 3.501858381924355E+08, -2.553497551209918E+07,
2460700.500000000, A.D. 2025-Jan-25 00:00:00.0000, 1.305456317211699E+08, 3.553957847987737E+08, -2.603658641741210E+07,
2460707.500000000, A.D. 2025-Feb-01 00:00:00.0000, 1.211465202102393E+08, 3.602903132454830E+08, -2.651505913153782E+07,
2460714.500000000, A.D. 2025-Feb-08 00:00:00.0000, 1.116410843224718E+08, 3.648689162537054E+08, -2.697025009813853E+07,
$$EOE